{"type": "FeatureCollection", "features": [ {"type": "Feature", "properties": {"norad_id": 66987, "name": "STARLINK-36147", "group": "last-30-days", "lat": 21.55498874666053, "lon": 153.88030900483588, "alt_km": 313.11504899835927, "timestamp": "2025-12-18T23:35:47.783806+00:00", "meta": {"OBJECT_NAME": "STARLINK-36147", "OBJECT_ID": "2025-288AE", "EPOCH": "2025-12-18T14:00:03.000384", "MEAN_MOTION": 15.86396882, "ECCENTRICITY": 0.00013308, "INCLINATION": 43.0015, "RA_OF_ASC_NODE": 131.2642, "ARG_OF_PERICENTER": 275.3542, "MEAN_ANOMALY": 352.0651, "EPHEMERIS_TYPE": 0, "CLASSIFICATION_TYPE": "U", "NORAD_CAT_ID": 66987, "ELEMENT_SET_NO": 999, "REV_AT_EPOCH": 277, "BSTAR": -0.0067338592, "MEAN_MOTION_DOT": -0.01541227, "MEAN_MOTION_DDOT": 0}, "tle": {"line1": "1 66987U 25288AE  25352.58336806 -.01541227  00000+0 -67339-2 0  9990", "line2": "2 66987  43.0015 131.2642 0001330 275.3542 352.0651 15.86396882  2779"}}, "geometry": {"type": "Point", "coordinates": [153.88030900483588, 21.55498874666053]}}, {"type": "Feature", "properties": {"norad_id": 66988, "name": "YAOGAN-47", "group": "last-30-days", "lat": 8.148943076225894, "lon": 57.031787797698236, "alt_km": 497.76154641048015, "timestamp": "2025-12-18T23:35:47.783820+00:00", "meta": {"OBJECT_NAME": "YAOGAN-47", "OBJECT_ID": "2025-289A", "EPOCH": "2025-12-15T02:32:19.481856", "MEAN_MOTION": 15.23184629, "ECCENTRICITY": 7.87e-05, "INCLINATION": 97.5271, "RA_OF_ASC_NODE": 54.2297, "ARG_OF_PERICENTER": 67.3408, "MEAN_ANOMALY": 292.7912, "EPHEMERIS_TYPE": 0, "CLASSIFICATION_TYPE": "U", "NORAD_CAT_ID": 66988, "ELEMENT_SET_NO": 999, "REV_AT_EPOCH": 90, "BSTAR": 0.00011849353, "MEAN_MOTION_DOT": 2.729e-05, "MEAN_MOTION_DDOT": 0}, "tle": {"line1": "1 66988U 25289A   25349.10578104  .00002729  00000+0  11849-3 0  9997", "line2": "2 66988  97.5271  54.2297 0000787  67.3408 292.7912 15.23184629   901"}}, "geometry": {"type": "Point", "coordinates": [57.031787797698236, 8.148943076225894]}}, {"type": "Feature", "properties": {"norad_id": 66989, "name": "CZ-4B R/B", "group": "last-30-days", "lat": 73.3908361991634, "lon": -94.90869630320802, "alt_km": 411.04051803620496, "timestamp": "2025-12-18T23:35:47.783830+00:00", "meta": {"OBJECT_NAME": "CZ-4B R/B", "OBJECT_ID": "2025-289B", "EPOCH": "2025-12-18T10:54:25.623072", "MEAN_MOTION": 15.68606526, "ECCENTRICITY": 0.01446318, "INCLINATION": 97.5258, "RA_OF_ASC_NODE": 58.214, "ARG_OF_PERICENTER": 341.3173, "MEAN_ANOMALY": 18.2809, "EPHEMERIS_TYPE": 0, "CLASSIFICATION_TYPE": "U", "NORAD_CAT_ID": 66989, "ELEMENT_SET_NO": 999, "REV_AT_EPOCH": 146, "BSTAR": 0.00060706589, "MEAN_MOTION_DOT": 0.00125331, "MEAN_MOTION_DDOT": 6.732073e-06}, "tle": {"line1": "1 66989U 25289B   25352.45446323  .00125331  67321-5  60707-3 0  9994", "line2": "2 66989  97.5258  58.2140 0144631 341.3173  18.2809 15.68606526  1461"}}, "geometry": {"type": "Point", "coordinates": [-94.90869630320802, 73.3908361991634]}}, {"type": "Feature", "properties": {"norad_id": 66990, "name": "TJS-22", "group": "last-30-days", "lat": -10.233866696522318, "lon": -90.48121092448382, "alt_km": 24388.815974810652, "timestamp": "2025-12-18T23:35:47.783841+00:00", "meta": {"OBJECT_NAME": "TJS-22", "OBJECT_ID": "2025-290A", "EPOCH": "2025-12-10T07:11:32.845344", "MEAN_MOTION": 2.15443148, "ECCENTRICITY": 0.6664534, "INCLINATION": 20.1261, "RA_OF_ASC_NODE": 301.1464, "ARG_OF_PERICENTER": 180.6877, "MEAN_ANOMALY": 177.6237, "EPHEMERIS_TYPE": 0, "CLASSIFICATION_TYPE": "U", "NORAD_CAT_ID": 66990, "ELEMENT_SET_NO": 999, "REV_AT_EPOCH": 3, "BSTAR": 0.079788243, "MEAN_MOTION_DOT": -3.8e-07, "MEAN_MOTION_DDOT": 0}, "tle": {"line1": "1 66990U 25290A   25344.29968571 -.00000038  00000+0  79788-1 0  9994", "line2": "2 66990  20.1261 301.1464 6664534 180.6877 177.6237  2.15443148    32"}}, "geometry": {"type": "Point", "coordinates": [-90.48121092448382, -10.233866696522318]}}, {"type": "Feature", "properties": {"norad_id": 66991, "name": "CZ-3B R/B", "group": "last-30-days", "lat": -9.439442238762265, "lon": -78.66515791515654, "alt_km": 26446.749463396987, "timestamp": "2025-12-18T23:35:47.783853+00:00", "meta": {"OBJECT_NAME": "CZ-3B R/B", "OBJECT_ID": "2025-290B", "EPOCH": "2025-12-15T17:23:33.043200", "MEAN_MOTION": 2.38388611, "ECCENTRICITY": 0.7240884, "INCLINATION": 28.4636, "RA_OF_ASC_NODE": 300.4666, "ARG_OF_PERICENTER": 182.7002, "MEAN_ANOMALY": 168.625, "EPHEMERIS_TYPE": 0, "CLASSIFICATION_TYPE": "U", "NORAD_CAT_ID": 66991, "ELEMENT_SET_NO": 999, "REV_AT_EPOCH": 16, "BSTAR": 0.00075879, "MEAN_MOTION_DOT": 0.00057911, "MEAN_MOTION_DDOT": -2.0514e-07}, "tle": {"line1": "1 66991U 25290B   25349.72468800  .00057911 -20514-6  75879-3 0  9998", "line2": "2 66991  28.4636 300.4666 7240884 182.7002 168.6250  2.38388611   165"}}, "geometry": {"type": "Point", "coordinates": [-78.66515791515654, -9.439442238762265]}}, {"type": "Feature", "properties": {"norad_id": 66993, "name": "2025-292A", "group": "last-30-days", "lat": -48.03800566738068, "lon": 74.07449399195791, "alt_km": 555.2879004193283, "timestamp": "2025-12-18T23:35:47.783864+00:00", "meta": {"OBJECT_NAME": "2025-292A", "OBJECT_ID": "2025-292A", "EPOCH": "2025-12-18T14:14:06.798336", "MEAN_MOTION": 15.04536344, "ECCENTRICITY": 0.00138491, "INCLINATION": 97.6532, "RA_OF_ASC_NODE": 65.088, "ARG_OF_PERICENTER": 250.7243, "MEAN_ANOMALY": 109.2485, "EPHEMERIS_TYPE": 0, "CLASSIFICATION_TYPE": "U", "NORAD_CAT_ID": 66993, "ELEMENT_SET_NO": 999, "REV_AT_EPOCH": 127, "BSTAR": 0.00022615397, "MEAN_MOTION_DOT": 3.113e-05, "MEAN_MOTION_DDOT": 0}, "tle": {"line1": "1 66993U 25292A   25352.59313424  .00003113  00000+0  22615-3 0  9997", "line2": "2 66993  97.6532  65.0880 0013849 250.7243 109.2485 15.04536344  1276"}}, "geometry": {"type": "Point", "coordinates": [74.07449399195791, -48.03800566738068]}}, {"type": "Feature", "properties": {"norad_id": 66994, "name": "2025-292B", "group": "last-30-days", "lat": -46.652080132552086, "lon": 73.66649553444955, "alt_km": 555.3510624436876, "timestamp": "2025-12-18T23:35:47.783874+00:00", "meta": {"OBJECT_NAME": "2025-292B", "OBJECT_ID": "2025-292B", "EPOCH": "2025-12-18T14:13:45.127488", "MEAN_MOTION": 15.04576532, "ECCENTRICITY": 0.00136164, "INCLINATION": 97.6541, "RA_OF_ASC_NODE": 65.0891, "ARG_OF_PERICENTER": 251.0589, "MEAN_ANOMALY": 108.9162, "EPHEMERIS_TYPE": 0, "CLASSIFICATION_TYPE": "U", "NORAD_CAT_ID": 66994, "ELEMENT_SET_NO": 999, "REV_AT_EPOCH": 127, "BSTAR": 0.0002643114, "MEAN_MOTION_DOT": 3.653e-05, "MEAN_MOTION_DDOT": 0}, "tle": {"line1": "1 66994U 25292B   25352.59288342  .00003653  00000+0  26431-3 0  9997", "line2": "2 66994  97.6541  65.0891 0013616 251.0589 108.9162 15.04576532  1279"}}, "geometry": {"type": "Point", "coordinates": [73.66649553444955, -46.652080132552086]}}, {"type": "Feature", "properties": {"norad_id": 66995, "name": "2025-292C", "group": "last-30-days", "lat": -46.31071946061616, "lon": 73.56693586769417, "alt_km": 555.159489929224, "timestamp": "2025-12-18T23:35:47.783884+00:00", "meta": {"OBJECT_NAME": "2025-292C", "OBJECT_ID": "2025-292C", "EPOCH": "2025-12-18T14:13:40.130112", "MEAN_MOTION": 15.04602198, "ECCENTRICITY": 0.00139168, "INCLINATION": 97.6531, "RA_OF_ASC_NODE": 65.0884, "ARG_OF_PERICENTER": 251.4448, "MEAN_ANOMALY": 108.5266, "EPHEMERIS_TYPE": 0, "CLASSIFICATION_TYPE": "U", "NORAD_CAT_ID": 66995, "ELEMENT_SET_NO": 999, "REV_AT_EPOCH": 127, "BSTAR": 0.0002956145, "MEAN_MOTION_DOT": 4.097e-05, "MEAN_MOTION_DDOT": 0}, "tle": {"line1": "1 66995U 25292C   25352.59282558  .00004097  00000+0  29561-3 0  9991", "line2": "2 66995  97.6531  65.0884 0013916 251.4448 108.5266 15.04602198  1271"}}, "geometry": {"type": "Point", "coordinates": [73.56693586769417, -46.31071946061616]}}, {"type": "Feature", "properties": {"norad_id": 66996, "name": "2025-292D", "group": "last-30-days", "lat": -44.87972799397583, "lon": 73.16931778495227, "alt_km": 555.1039135116371, "timestamp": "2025-12-18T23:35:47.783895+00:00", "meta": {"OBJECT_NAME": "2025-292D", "OBJECT_ID": "2025-292D", "EPOCH": "2025-12-18T14:13:17.485536", "MEAN_MOTION": 15.04634348, "ECCENTRICITY": 0.0013079, "INCLINATION": 97.6524, "RA_OF_ASC_NODE": 65.0881, "ARG_OF_PERICENTER": 254.1392, "MEAN_ANOMALY": 105.8393, "EPHEMERIS_TYPE": 0, "CLASSIFICATION_TYPE": "U", "NORAD_CAT_ID": 66996, "ELEMENT_SET_NO": 999, "REV_AT_EPOCH": 127, "BSTAR": 0.00018018254, "MEAN_MOTION_DOT": 2.474e-05, "MEAN_MOTION_DDOT": 0}, "tle": {"line1": "1 66996U 25292D   25352.59256349  .00002474  00000+0  18018-3 0  9993", "line2": "2 66996  97.6524  65.0881 0013079 254.1392 105.8393 15.04634348  1272"}}, "geometry": {"type": "Point", "coordinates": [73.16931778495227, -44.87972799397583]}}, {"type": "Feature", "properties": {"norad_id": 66997, "name": "2025-292E", "group": "last-30-days", "lat": -42.372678936794564, "lon": 72.52562043304145, "alt_km": 554.8624006671216, "timestamp": "2025-12-18T23:35:47.783905+00:00", "meta": {"OBJECT_NAME": "2025-292E", "OBJECT_ID": "2025-292E", "EPOCH": "2025-12-18T14:12:38.653920", "MEAN_MOTION": 15.0471954, "ECCENTRICITY": 0.00134465, "INCLINATION": 97.6546, "RA_OF_ASC_NODE": 65.0908, "ARG_OF_PERICENTER": 255.0308, "MEAN_ANOMALY": 104.943, "EPHEMERIS_TYPE": 0, "CLASSIFICATION_TYPE": "U", "NORAD_CAT_ID": 66997, "ELEMENT_SET_NO": 999, "REV_AT_EPOCH": 126, "BSTAR": 0.00022177331, "MEAN_MOTION_DOT": 3.067e-05, "MEAN_MOTION_DDOT": 0}, "tle": {"line1": "1 66997U 25292E   25352.59211405  .00003067  00000+0  22177-3 0  9998", "line2": "2 66997  97.6546  65.0908 0013446 255.0308 104.9430 15.04719540  1261"}}, "geometry": {"type": "Point", "coordinates": [72.52562043304145, -42.372678936794564]}}]}